NORAD_CAT_ID,OBJECT_NAME,OBJECT_TYPE,EPOCH,MEAN_MOTION,ECCENTRICITY,INCLINATION,RA_OF_ASC_NODE,ARG_OF_PERICENTER,MEAN_ANOMALY,BSTAR,MEAN_MOTION_DOT,MEAN_MOTION_DDOT,TLE_LINE0,TLE_LINE1,TLE_LINE2,SEMIMAJOR_AXIS,PERIOD,APOGEE,PERIGEE,DECAYED
51728.0,STARLINK-3448,PAYLOAD,2022-12-17 17:26:53,15.08839885,0.0002663,53.2177,207.2113,30.0795,330.035,9.3629e-06,-1.39e-06,0.0,0 STARLINK-3448,1 51728U 22016Q   22351.72700955 -.00000139  00000-0  93629-5 0  9990,2 51728  53.2177 207.2113 0002663  30.0795 330.0350 15.08839885 46860,6917.880999999999,95.438,541.5880000000002,537.904,0.0
51728.0,STARLINK-3448,PAYLOAD,2022-12-17 20:37:39,15.08841096,0.0002687,53.2178,206.6171,32.6403,327.4755,1.9742e-05,2.6e-07,0.0,0 STARLINK-3448,1 51728U 22016Q   22351.85948889  .00000026  00000-0  19742-4 0  9991,2 51728  53.2178 206.6171 0002687  32.6403 327.4755 15.08841096 45751,6917.877,95.437,541.601,537.883,0.0
51728.0,STARLINK-3448,PAYLOAD,2022-12-18 07:45:21,15.08840153,0.0002702,53.2177,204.5351,31.8154,328.3001,0.00014262,1.982e-05,0.0,0 STARLINK-3448,1 51728U 22016Q   22352.32316793  .00001982  00000-0  14262-3 0  9990,2 51728  53.2177 204.5351 0002702  31.8154 328.3001 15.08840153 45824,6917.88,95.438,541.614,537.876,0.0
51728.0,STARLINK-3448,PAYLOAD,2022-12-18 14:06:52,15.08879548,0.0002506,53.2177,203.3454,35.5952,324.5207,-0.00046161,-7.636e-05,0.0,0 STARLINK-3448,1 51728U 22016Q   22352.58810869 -.00007636  00000-0 -46161-3 0  9998,2 51728  53.2177 203.3454 0002506  35.5952 324.5207 15.08879548 46999,6917.76,95.435,541.3580000000002,537.891,0.0
51728.0,STARLINK-3448,PAYLOAD,2022-12-18 20:28:26,15.08839628,0.0002703,53.2182,202.1568,30.6291,329.4858,0.00021706,3.168e-05,0.0,0 STARLINK-3448,1 51728U 22016Q   22352.85308845  .00003168  00000-0  21706-3 0  9996,2 51728  53.2182 202.1568 0002703  30.6291 329.4858 15.08839628 45900,6917.882,95.438,541.616,537.877,0.0
51728.0,STARLINK-3448,PAYLOAD,2022-12-19 07:36:09,15.08831998,0.0002682,53.2182,200.0759,32.5772,327.5386,0.00012491,1.7e-05,0.0,0 STARLINK-3448,1 51728U 22016Q   22353.31677851  .00001700  00000-0  12491-3 0  9995,2 51728  53.2182 200.0759 0002682  32.5772 327.5386 15.08831998 47101,6917.905,95.438,541.625,537.914,0.0
51728.0,STARLINK-3448,PAYLOAD,2022-12-19 20:19:14,15.08841926,0.0002733,53.2177,197.6971,30.1989,329.916,0.00010779,1.428e-05,0.0,0 STARLINK-3448,1 51728U 22016Q   22353.84669180  .00001428  00000-0  10779-3 0  9993,2 51728  53.2177 197.6971 0002733  30.1989 329.9160 15.08841926 46054,6917.875,95.437,541.63,537.849,0.0
51728.0,STARLINK-3448,PAYLOAD,2022-12-19 21:54:37,15.08844058,0.0002804,53.2176,197.3998,30.4183,329.6971,0.00012026,1.626e-05,0.0,0 STARLINK-3448,1 51728U 22016Q   22353.91293016  .00001626  00000-0  12026-3 0  9999,2 51728  53.2176 197.3998 0002804  30.4183 329.6971 15.08844058 47199,6917.868,95.437,541.673,537.793,0.0
51728.0,STARLINK-3448,PAYLOAD,2022-12-20 13:48:27,15.08852386,0.0002835,53.2179,194.4264,30.6389,329.4768,0.00012235,1.66e-05,0.0,0 STARLINK-3448,1 51728U 22016Q   22354.57532270  .00001660  00000-0  12235-3 0  9990,2 51728  53.2179 194.4264 0002835  30.6389 329.4768 15.08852386 46161,6917.843000000003,95.437,541.669,537.746,0.0
51728.0,STARLINK-3448,PAYLOAD,2022-12-20 20:10:01,15.08839506,0.000276,53.2176,193.2364,31.2489,328.8667,8.300299999999999e-06,-1.56e-06,0.0,0 STARLINK-3448,1 51728U 22016Q   22354.84029196 -.00000156  00000-0  83003-5 0  9991,2 51728  53.2176 193.2364 0002760  31.2489 328.8667 15.08839506 47331,6917.882,95.438,541.656,537.8380000000002,0.0
51728.0,STARLINK-3448,PAYLOAD,2022-12-21 13:39:15,15.08841968,0.0002794,53.2176,189.965,34.1934,325.9238,8.286200000000001e-05,1.031e-05,0.0,0 STARLINK-3448,1 51728U 22016Q   22355.56893021  .00001031  00000-0  82862-4 0  9990,2 51728  53.2176 189.9650 0002794  34.1934 325.9238 15.08841968 46319,6917.874,95.437,541.672,537.807,0.0
51728.0,STARLINK-3448,PAYLOAD,2022-12-22 05:33:06,15.08848729,0.0002873,53.2165,186.9909,35.0392,325.0788,8.353e-05,1.041e-05,0.0,0 STARLINK-3448,1 51728U 22016Q   22356.23132344  .00001041  00000-0  83530-4 0  9993,2 51728  53.2165 186.9909 0002873  35.0392 325.0788 15.08848729 47546,6917.854,95.437,541.706,537.731,0.0
51728.0,STARLINK-3448,PAYLOAD,2022-12-22 13:30:02,15.08841778,0.0002863,53.2166,185.5041,36.1861,323.9325,-3.2473e-05,-8.05e-06,0.0,0 STARLINK-3448,1 51728U 22016Q   22356.56252583 -.00000805  00000-0 -32473-4 0  9996,2 51728  53.2166 185.5041 0002863  36.1861 323.9325 15.08841778 46462,6917.875,95.437,541.721,537.759,0.0
51728.0,STARLINK-3448,PAYLOAD,2022-12-22 16:40:48,15.08835837,0.0002779,53.2166,184.9091,37.8093,322.3094,-6.281800000000001e-05,-1.288e-05,0.0,0 STARLINK-3448,1 51728U 22016Q   22356.69500908 -.00001288  00000-0 -62818-4 0  9999,2 51728  53.2166 184.9091 0002779  37.8093 322.3094 15.08835837 47614,6917.893,95.438,541.681,537.836,0.0
51728.0,STARLINK-3448,PAYLOAD,2022-12-23 13:20:49,15.08834239,0.0002833,53.2162,181.0438,37.0039,323.1148,-5.0682e-05,-1.095e-05,0.0,0 STARLINK-3448,1 51728U 22016Q   22357.55613191 -.00001095  00000-0 -50682-4 0  9996,2 51728  53.2162 181.0438 0002833  37.0039 323.1148 15.08834239 46619,6917.898,95.438,541.7230000000002,537.803,0.0
51728.0,STARLINK-3448,PAYLOAD,2022-12-23 19:42:22,15.08837448,0.0002817,53.2175,179.8545,37.2784,322.8403,2.9441e-05,1.8e-06,0.0,0 STARLINK-3448,1 51728U 22016Q   22357.82109455  .00000180  00000-0  29441-4 0  9990,2 51728  53.2175 179.8545 0002817  37.2784 322.8403 15.08837448 46657,6917.888000000001,95.438,541.702,537.804,0.0
51728.0,STARLINK-3448,PAYLOAD,2022-12-23 22:53:08,15.08837348,0.0002825,53.2175,179.2599,37.6159,322.503,2.5542e-05,1.18e-06,0.0,0 STARLINK-3448,1 51728U 22016Q   22357.95357486  .00000118  00000-0  25542-4 0  9992,2 51728  53.2175 179.2599 0002825  37.6159 322.5030 15.08837348 47809,6917.888000000001,95.438,541.7080000000002,537.799,0.0
51728.0,STARLINK-3448,PAYLOAD,2022-12-24 11:36:13,15.08836796,0.0002813,53.2177,176.8809,37.6961,322.4228,7.7452e-05,9.44e-06,0.0,0 STARLINK-3448,1 51728U 22016Q   22358.48349405  .00000944  00000-0  77452-4 0  9997,2 51728  53.2177 176.8809 0002813  37.6961 322.4228 15.08836796 46753,6917.89,95.438,541.701,537.809,0.0
51728.0,STARLINK-3448,PAYLOAD,2022-12-24 19:33:09,15.08836141,0.0002862,53.2176,175.3942,38.5777,321.5419,0.00012813,1.751e-05,0.0,0 STARLINK-3448,1 51728U 22016Q   22358.81469438  .00001751  00000-0  12813-3 0  9999,2 51728  53.2176 175.3942 0002862  38.5777 321.5419 15.08836141 46805,6917.892,95.438,541.737,537.7769999999998,0.0
51728.0,STARLINK-3448,PAYLOAD,2022-12-25 20:59:19,15.08846409,0.0002927,53.2176,170.6365,40.7697,319.3513,0.00014035,1.946e-05,0.0,0 STARLINK-3448,1 51728U 22016Q   22359.87452777  .00001946  00000-0  14035-3 0  9998,2 51728  53.2176 170.6365 0002927  40.7697 319.3513 15.08846409 48091,6917.861,95.437,541.751,537.701,0.0
51728.0,STARLINK-3448,PAYLOAD,2022-12-26 11:17:48,15.08830773,0.0002425,53.2174,167.9608,35.4551,324.6602,0.00025897,3.835e-05,0.0,0 STARLINK-3448,1 51728U 22016Q   22360.47069512  .00003835  00000-0  25897-3 0  9994,2 51728  53.2174 167.9608 0002425  35.4551 324.6602 15.08830773 47051,6917.909000000002,95.438,541.451,538.096,0.0
51728.0,STARLINK-3448,PAYLOAD,2022-12-26 20:50:06,15.088397699999998,0.0003002,53.2175,166.1765,42.7563,317.3662,3.8129e-05,3.18e-06,0.0,0 STARLINK-3448,1 51728U 22016Q   22360.86813424  .00000318  00000-0  38129-4 0  9992,2 51728  53.2175 166.1765 0003002  42.7563 317.3662 15.08839770 48246,6917.880999999999,95.438,541.823,537.669,0.0
51728.0,STARLINK-3448,PAYLOAD,2022-12-27 04:47:02,15.0884481,0.000299,53.2179,164.6895,44.0339,316.0891,5.247100000000001e-05,5.47e-06,0.0,0 STARLINK-3448,1 51728U 22016Q   22361.19932964  .00000547  00000-0  52471-4 0  9990,2 51728  53.2179 164.6895 0002990  44.0339 316.0891 15.08844810 47169,6917.866,95.437,541.799,537.6619999999998,0.0
51728.0,STARLINK-3448,PAYLOAD,2022-12-27 20:40:52,15.08850383,0.0002911,53.2179,161.7153,44.7041,315.4186,3.9046e-05,3.33e-06,0.0,0 STARLINK-3448,1 51728U 22016Q   22361.86172326  .00000333  00000-0  39046-4 0  9998,2 51728  53.2179 161.7153 0002911  44.7041 315.4186 15.08850383 48392,6917.849,95.437,541.727,537.7,0.0
51728.0,STARLINK-3448,PAYLOAD,2022-12-28 10:59:21,15.08839332,0.0002963,53.2174,159.0394,44.114,316.0088,9.2236e-05,1.18e-05,0.0,0 STARLINK-3448,1 51728U 22016Q   22362.45788756  .00001180  00000-0  92236-4 0  9995,2 51728  53.2174 159.0394 0002963  44.1140 316.0088 15.08839332 47359,6917.882,95.438,541.797,537.698,0.0
51728.0,STARLINK-3448,PAYLOAD,2022-12-29 10:50:08,15.08838631,0.0002786,53.217,154.5786,49.78,310.3436,-2.4166e-05,-6.73e-06,0.0,0 STARLINK-3448,1 51728U 22016Q   22363.45149305 -.00000673  00000-0 -24166-4 0  9992,2 51728  53.2170 154.5786 0002786  49.7800 310.3436 15.08838631 48634,6917.885,95.438,541.677,537.822,0.0
51728.0,STARLINK-3448,PAYLOAD,2022-12-29 20:22:28,15.08830856,0.0003033,53.2177,152.7962,41.62600000000001,318.4963,-8.0487e-05,-1.569e-05,0.0,0 STARLINK-3448,1 51728U 22016Q   22363.84894081 -.00001569  00000-0 -80487-4 0  9996,2 51728  53.2177 152.7962 0003033  41.6260 318.4963 15.08830856 48695,6917.908,95.438,541.872,537.675,0.0
51728.0,STARLINK-3448,PAYLOAD,2022-12-30 10:40:56,15.08832955,0.0002786,53.2189,150.1188,42.6931,317.4277,7.3167e-06,-1.72e-06,0.0,0 STARLINK-3448,1 51728U 22016Q   22364.44510270 -.00000172  00000-0  73167-5 0  9994,2 51728  53.2189 150.1188 0002786  42.6931 317.4277 15.08832955 47654,6917.901999999999,95.438,541.694,537.84,0.0
51728.0,STARLINK-3448,PAYLOAD,2022-12-30 18:37:52,15.08844048,0.0002908999999999,53.2183,148.6325,43.2454,316.8766,0.00012544,1.709e-05,0.0,0 STARLINK-3448,1 51728U 22016Q   22364.77629631  .00001709  00000-0  12544-3 0  9998,2 51728  53.2183 148.6325 0002909  43.2454 316.8766 15.08844048 48830,6917.868,95.437,541.745,537.721,0.0
